O3B MPOWER F1           
1 54755U 22174A   24048.54314615 -.00000025  00000+0  00000+0 0  9995
2 54755   0.0627   8.6576 0006375 329.2183 266.0304  5.00118503 22800
